STARLINK-2257           
1 47787U 21018A   26068.72604549 -.00001022  00000+0 -22395-4 0  9995
2 47787  53.1595 245.1686 0001224  89.9599 270.1542 15.30195877276690
YAM-7                   
1 60504U 24149AN  26068.71799904  .00009009  00000+0  30984-3 0  9997
2 60504  97.3828 149.4631 0001973 296.5121  63.5918 15.30304554 86835
